[{"OBJECT_NAME":"STARLINK-34740","OBJECT_ID":"2025-158K","EPOCH":"2026-03-09T14:10:40.903680","MEAN_MOTION":15.0562128,"ECCENTRICITY":0.000283,"INCLINATION":97.6011,"RA_OF_ASC_NODE":294.0305,"ARG_OF_PERICENTER":93.1107,"MEAN_ANOMALY":267.0444,"EPHEMERIS_TYPE":0,"CLASSIFICATION_TYPE":"U","NORAD_CAT_ID":64941,"ELEMENT_SET_NO":999,"REV_AT_EPOCH":3528,"BSTAR":-0.00011046,"MEAN_MOTION_DOT":-1.653e-5,"MEAN_MOTION_DDOT":0},{"OBJECT_NAME":"COSMOS 397 DEB","OBJECT_ID":"1971-015U","EPOCH":"2026-03-09T13:29:42.554976","MEAN_MOTION":14.46444927,"ECCENTRICITY":0.0335899,"INCLINATION":65.6875,"RA_OF_ASC_NODE":135.6369,"ARG_OF_PERICENTER":212.43,"MEAN_ANOMALY":145.5762,"EPHEMERIS_TYPE":0,"CLASSIFICATION_TYPE":"U","NORAD_CAT_ID":5094,"ELEMENT_SET_NO":999,"REV_AT_EPOCH":67470,"BSTAR":0.0028972,"MEAN_MOTION_DOT":0.00021188,"MEAN_MOTION_DDOT":0}]
